NORAD_CAT_ID,OBJECT_NAME,OBJECT_TYPE,EPOCH,MEAN_MOTION,ECCENTRICITY,INCLINATION,RA_OF_ASC_NODE,ARG_OF_PERICENTER,MEAN_ANOMALY,BSTAR,MEAN_MOTION_DOT,MEAN_MOTION_DDOT,TLE_LINE0,TLE_LINE1,TLE_LINE2,SEMIMAJOR_AXIS,PERIOD,APOGEE,PERIGEE,DECAYED
51106.0,STARLINK-3176,PAYLOAD,2022-05-03 22:00:00,15.27868771,0.0001781999999999,53.2161,120.9706,28.9737,53.0946,-0.016907,-0.00439886,0.0,0 STARLINK-3176,1 51106U 22005C   22123.91667824 -.00439886  00000-0 -16907-1 0  9999,2 51106  53.2161 120.9706 0001782  28.9737  53.0946 15.27868771 17740,6860.321999999999,94.249,483.409,480.964,0.0
51106.0,STARLINK-3176,PAYLOAD,2022-05-04 06:00:02,15.27407766,0.0001802,53.2164,119.428,35.7637,80.7307,-0.016926,-0.00434526,0.0,0 STARLINK-3176,1 51106U 22005C   22124.25002315 -.00434526  00000-0 -16926-1 0  9992,2 51106  53.2164 119.4280 0001802  35.7637  80.7307 15.27407766 17809,6861.7019999999975,94.277,484.80300000000005,482.33,0.0
51106.0,STARLINK-3176,PAYLOAD,2022-05-04 14:00:01,15.271026,0.0001761,53.2171,117.8772,42.2207,107.9471,-0.025712,-0.00644055,0.0,0 STARLINK-3176,1 51106U 22005C   22124.58334491 -.00644055  00000-0 -25712-1 0  9994,2 51106  53.2171 117.8772 0001761  42.2207 107.9471 15.27102600 17853,6862.616,94.296,485.689,483.272,0.0
51106.0,STARLINK-3176,PAYLOAD,2022-05-04 22:00:01,15.26647948,0.000187,53.2172,116.3337,39.8141,143.6819,-0.026171,-0.00646367,0.0,0 STARLINK-3176,1 51106U 22005C   22124.91668981 -.00646367  00000-0 -26171-1 0  9993,2 51106  53.2172 116.3337 0001870  39.8141 143.6819 15.26647948  3660,6863.978,94.324,487.127,484.56,0.0
51106.0,STARLINK-3176,PAYLOAD,2022-05-05 14:00:01,15.25658479,0.0001713,53.2158,113.2597,39.8788,208.4727,-0.022091,-0.00530777,0.0,0 STARLINK-3176,1 51106U 22005C   22125.58334491 -.00530777  00000-0 -22091-1 0  9997,2 51106  53.2158 113.2597 0001713  39.8788 208.4727 15.25658479  3625,6866.946,94.385,489.987,487.635,0.0
51106.0,STARLINK-3176,PAYLOAD,2022-05-05 16:00:00,15.25620358,0.0001673,53.2166,112.8713,39.3321,306.9407,-0.026837,-0.00642705,0.0,0 STARLINK-3176,1 51106U 22005C   22125.66667824 -.00642705  00000-0 -26837-1 0  9992,2 51106  53.2166 112.8713 0001673  39.3321 306.9407 15.25620358 18015,6867.06,94.388,490.074,487.776,0.0
51106.0,STARLINK-3176,PAYLOAD,2022-05-05 22:00:00,15.25145121,0.0001942,53.2161,111.7192,43.333,236.6722,-0.018998,-0.00454147,0.0,0 STARLINK-3176,1 51106U 22005C   22125.91667824 -.00454147  00000-0 -18998-1 0  9990,2 51106  53.2161 111.7192 0001942  43.3330 236.6722 15.25145121  3623,6868.486999999999,94.417,491.686,489.018,0.0
51106.0,STARLINK-3176,PAYLOAD,2022-05-06 14:00:01,15.24369806,0.0001584,53.2173,108.64,44.4281,297.1099,-0.028079,-0.00647216,0.0,0 STARLINK-3176,1 51106U 22005C   22126.58334491 -.00647216  00000-0 -28079-1 0  9997,2 51106  53.2173 108.6400 0001584  44.4281 297.1099 15.24369806  3662,6870.815,94.465,493.769,491.592,0.0
51106.0,STARLINK-3176,PAYLOAD,2022-05-06 22:00:00,15.23769526,0.0001579,53.216,107.1083,33.6147,337.9746,-0.019328,-0.00443931,0.0,0 STARLINK-3176,1 51106U 22005C   22126.91667824 -.00443931  00000-0 -19328-1 0  9998,2 51106  53.2160 107.1083 0001579  33.6147 337.9746 15.23769526 18204,6872.62,94.502,495.57,493.4,0.0
51106.0,STARLINK-3176,PAYLOAD,2022-05-07 06:00:02,15.23458846,0.0001909,53.2175,105.5705,33.9154,7.0946,-0.028884,-0.00647838,0.0,0 STARLINK-3176,1 51106U 22005C   22127.25002315 -.00647838  00000-0 -28884-1 0  9993,2 51106  53.2175 105.5705 0001909  33.9154   7.0946 15.23458846 18253,6873.554,94.522,496.731,494.107,0.0
51106.0,STARLINK-3176,PAYLOAD,2022-05-07 14:00:01,15.2300146,0.0001643,53.2173,104.0361,41.4644,28.3666,-0.02914,-0.00644908,0.0,0 STARLINK-3176,1 51106U 22005C   22127.58334491 -.00644908  00000-0 -29140-1 0  9993,2 51106  53.2173 104.0361 0001643  41.4644  28.3666 15.23001460  3655,6874.93,94.55,497.925,495.666,0.0
51106.0,STARLINK-3176,PAYLOAD,2022-05-07 22:00:00,15.22544907,0.0001846,53.2175,102.5025,36.6379,61.5294,-0.029433,-0.00642784,0.0,0 STARLINK-3176,1 51106U 22005C   22127.91667824 -.00642784  00000-0 -29433-1 0  9994,2 51106  53.2175 102.5025 0001846  36.6379  61.5294 15.22544907  3656,6876.305,94.578,499.439,496.9,0.0
51106.0,STARLINK-3176,PAYLOAD,2022-05-08 14:00:01,15.21518368,0.0001882,53.216,99.4453,31.2201,122.0423,-0.023219,-0.00495335,0.0,0 STARLINK-3176,1 51106U 22005C   22128.58334491 -.00495335  00000-0 -23219-1 0  9993,2 51106  53.2160  99.4453 0001882  31.2201 122.0423 15.21518368 18467,6879.397,94.642,502.557,499.967,0.0
51106.0,STARLINK-3176,PAYLOAD,2022-05-08 20:00:01,15.21291571,0.000188,53.2173,98.2936,34.9712,48.2958,-0.030578,-0.00643418,0.0,0 STARLINK-3176,1 51106U 22005C   22128.83334491 -.00643418  00000-0 -30578-1 0  9994,2 51106  53.2173  98.2936 0001880  34.9712  48.2958 15.21291571 18498,6880.081,94.656,503.239,500.652,0.0
51106.0,STARLINK-3176,PAYLOAD,2022-05-08 22:00:00,15.21081434,0.0001871,53.216,97.9149,37.4417,142.493,-0.02393,-0.0050341,0.0,0 STARLINK-3176,1 51106U 22005C   22128.91667824 -.00503410  00000-0 -23930-1 0  9993,2 51106  53.2160  97.9149 0001871  37.4417 142.4930 15.21081434  3627,6880.714,94.669,503.867,501.292,0.0
51106.0,STARLINK-3176,PAYLOAD,2022-05-09 14:00:01,15.20138521,0.000184,53.2159,94.8597,47.2912,184.471,-0.02278,-0.00468369,0.0,0 STARLINK-3176,1 51106U 22005C   22129.58335648 -.00468369  00000-0 -22780-1 0  9998,2 51106  53.2159  94.8597 0001840  47.2912 184.4710 15.20138521  3613,6883.559,94.728,506.691,504.158,0.0
51106.0,STARLINK-3176,PAYLOAD,2022-05-09 22:00:00,15.197385,0.000176,53.2159,93.3324,41.8712,214.8439,-0.026568,-0.00540551,0.0,0 STARLINK-3176,1 51106U 22005C   22129.91667824 -.00540551  00000-0 -26568-1 0  9991,2 51106  53.2159  93.3324 0001760  41.8712 214.8439 15.19738500  3611,6884.767,94.753,507.844,505.421,0.0
51106.0,STARLINK-3176,PAYLOAD,2022-05-10 00:00:00,15.1969541,0.0001767,53.2168,92.9502,37.7707,315.0873,-0.031898,-0.00640652,0.0,0 STARLINK-3176,1 51106U 22005C   22130.00001157 -.00640652  00000-0 -31898-1 0  9999,2 51106  53.2168  92.9502 0001767  37.7707 315.0873 15.19695410 18679,6884.897,94.756,507.979,505.546,0.0
51106.0,STARLINK-3176,PAYLOAD,2022-05-10 14:00:01,15.18901095,0.0001511,53.2174,90.2813,52.27,252.8683,-0.032985,-0.00646818,0.0,0 STARLINK-3176,1 51106U 22005C   22130.58334491 -.00646818  00000-0 -32985-1 0  9990,2 51106  53.2174  90.2813 0001511  52.2700 252.8683 15.18901095  3640,6887.2980000000025,94.805,510.203,508.122,0.0
51106.0,STARLINK-3176,PAYLOAD,2022-05-10 18:00:00,15.18671502,0.0001756,53.2172,89.5192,42.1326,94.7788,-0.033036,-0.00643764,0.0,0 STARLINK-3176,1 51106U 22005C   22130.75001157 -.00643764  00000-0 -33036-1 0  9994,2 51106  53.2172  89.5192 0001756  42.1326  94.7788 15.18671502  3637,6887.9919999999975,94.82,511.066,508.647,0.0
51106.0,STARLINK-3176,PAYLOAD,2022-05-11 22:00:00,15.17076374,0.0001706,53.2176,84.1958,40.3292,355.1533,-0.034542,-0.00649691,0.0,0 STARLINK-3176,1 51106U 22005C   22131.91667824 -.00649691  00000-0 -34542-1 0  9990,2 51106  53.2176  84.1958 0001706  40.3292 355.1533 15.17076374 18968,6892.819,94.919,515.86,513.508,0.0
51106.0,STARLINK-3176,PAYLOAD,2022-05-12 14:00:01,15.16164961,0.0001626,53.2174,81.1596,43.7447,33.6241,-0.035509,-0.00650568,0.0,0 STARLINK-3176,1 51106U 22005C   22132.58334491 -.00650568  00000-0 -35509-1 0  9994,2 51106  53.2174  81.1596 0001626  43.7447  33.6241 15.16164961  1304,6895.581,94.976,518.567,516.325,0.0
51106.0,STARLINK-3176,PAYLOAD,2022-05-12 22:00:00,15.1570895,0.0001786999999999,53.2175,79.6429,40.0324,57.4584,-0.03592,-0.00649649,0.0,0 STARLINK-3176,1 51106U 22005C   22132.91667824 -.00649649  00000-0 -35920-1 0  9995,2 51106  53.2175  79.6429 0001787  40.0324  57.4584 15.15708950  1309,6896.964,95.005,520.062,517.597,0.0
51106.0,STARLINK-3176,PAYLOAD,2022-05-13 06:00:00,15.1525193,0.0001724,53.2175,78.12899999999998,44.4636,72.6008,-0.036299,-0.00648096,0.0,0 STARLINK-3176,1 51106U 22005C   22133.25001157 -.00648096  00000-0 -36299-1 0  9999,2 51106  53.2175  78.1290 0001724  44.4636  72.6008 15.15251930 19179,6898.351,95.034,521.405,519.0269999999998,0.0
51106.0,STARLINK-3176,PAYLOAD,2022-05-13 14:00:01,15.14797236,0.0001718,53.2174,76.613,44.0171,92.0743,-0.036844,-0.00649294,0.0,0 STARLINK-3176,1 51106U 22005C   22133.58334491 -.00649294  00000-0 -36844-1 0  9992,2 51106  53.2174  76.6130 0001718  44.0171  92.0743 15.14797236  1308,6899.731,95.062,522.7819999999998,520.411,0.0
51106.0,STARLINK-3176,PAYLOAD,2022-05-13 22:00:00,15.14341474,0.0001767,53.2175,75.0995,46.5471,108.0232,-0.037319,-0.00649223,0.0,0 STARLINK-3176,1 51106U 22005C   22133.91667824 -.00649223  00000-0 -37319-1 0  9998,2 51106  53.2175  75.0995 0001767  46.5471 108.0232 15.14341474  1305,6901.116,95.091,524.2,521.761,0.0
51106.0,STARLINK-3176,PAYLOAD,2022-05-14 14:00:01,15.13429831,0.0001675,53.2174,72.0759,50.6747,139.2106,-0.038253,-0.00648573,0.0,0 STARLINK-3176,1 51106U 22005C   22134.58334491 -.00648573  00000-0 -38253-1 0  9998,2 51106  53.2174  72.0759 0001675  50.6747 139.2106 15.13429831  1308,6903.887,95.148,526.908,524.595,0.0
51106.0,STARLINK-3176,PAYLOAD,2022-05-14 16:00:00,15.13244093,0.000169,53.2159,71.6994,41.8276,242.3525,-0.032035,-0.00540973,0.0,0 STARLINK-3176,1 51106U 22005C   22134.66667824 -.00540973  00000-0 -32035-1 0  9993,2 51106  53.2159  71.6994 0001690  41.8276 242.3525 15.13244093 19386,6904.451,95.16,527.4830000000002,525.15,0.0
51106.0,STARLINK-3176,PAYLOAD,2022-05-14 22:00:00,15.129740900000002,0.0001853,53.2175,70.5659,44.2639,162.4575,-0.038759,-0.00648775,0.0,0 STARLINK-3176,1 51106U 22005C   22134.91667824 -.00648775  00000-0 -38759-1 0  9999,2 51106  53.2175  70.5659 0001853  44.2639 162.4575 15.12974090  1307,6905.273,95.177,528.4169999999998,525.8580000000002,0.0
